{
"type": "FeatureCollection",
"name": "parcel",
"crs": { "type": "name", "properties": { "name": "urn:ogc:def:crs:EPSG::9863" } },
"features": [
{ "type": "Feature", "properties": { "guid": "{D0ECE024-A1F2-440E-8233-976330298D23}", "class": "!відсутній", "katotth": "UA74020010000010449", "koatuu": "7422410100", "note": null, "strategy": null, "plan": null, "label": null, "precise": 500, "source": "відомості ДЗК", "region": 25, "district": "Селівський", "hromada": "Селівська", "settlem": "Селівка", "ad_guid": "{0F53D761-EE94-494A-8816-4ADB5A07E182}", "ad_doc": "Чернігівська область, Селівський район, Селівська міська рада (за межами с. Буда)", "location": 2, "cad_num": "7422482000:06:001:0145", "category": 100, "pur_code": "01.03", "purpose": "01.03", "use": null, "owner": 3, "area_l": 2.0, "owner": null, "o_edrpou": null, "o_doc_t": "", "o_date": null, "o_num": null, "o_appr": null, "o_doc": null, "o_docdat": null, "act_type": 0, "act_form": null, "act_num": null, "act_date": null, "use_type": 0, "user": "", "u_edrpou": null, "u_appr": null, "u_doc": "", "u_doc_n": null, "u_docdat": null, "u_docnum": null, "u_term": null, "u_number": null, "u_date": null, "u_pay": null, "area_f": 1.9999, "bld_coef": 0.0, "pop_dens": 0.0, "height": 0.0, "stores": null, "distance": null, "gr_per": null, "min_auto": null, "min_unl": null, "min_truc": null }, "geometry": { "type": "Polygon", "coordinates": [ [ [ 312714.959386828995775, 5733377.227007719688118 ], [ 312747.793003949976992, 5733376.435518830083311 ], [ 312782.131043898989446, 5733306.849027389660478 ], [ 312866.699407429026905, 5733292.011068429797888 ], [ 312866.087258594227023, 5733192.516790581867099 ], [ 312711.720358574006241, 5733198.549667559564114 ], [ 312714.959386828995775, 5733377.227007719688118 ] ] ] } },
{ "type": "Feature", "properties": { "guid": "{4126A104-A4E5-49EC-B800-9D67AEFF5241}", "class": "!відсутній", "katotth": "UA74020010000010449", "koatuu": "7422410100", "note": null, "strategy": null, "plan": null, "label": null, "precise": 500, "source": "відомості ДЗК", "region": 25, "district": "Селівський", "hromada": "Селівська", "settlem": "Селівка", "ad_guid": "{5E0ACD9F-AB7A-45E8-9926-E76564F29567}", "ad_doc": "Чернігівська область, Селівський район, Селівська міська рада (за межами с. Буда)", "location": 2, "cad_num": "7422482000:06:001:0146", "category": 100, "pur_code": "01.03", "purpose": "01.03", "use": null, "owner": 3, "area_l": 2.0, "owner": null, "o_edrpou": null, "o_doc_t": "", "o_date": null, "o_num": null, "o_appr": null, "o_doc": null, "o_docdat": null, "act_type": 0, "act_form": null, "act_num": null, "act_date": null, "use_type": 0, "user": "", "u_edrpou": null, "u_appr": null, "u_doc": "", "u_doc_n": null, "u_docdat": null, "u_docnum": null, "u_term": null, "u_number": null, "u_date": null, "u_pay": null, "area_f": 1.9999, "bld_coef": 0.0, "pop_dens": 0.0, "height": 0.0, "stores": null, "distance": null, "gr_per": null, "min_auto": null, "min_unl": null, "min_truc": null }, "geometry": { "type": "Polygon", "coordinates": [ [ [ 312970.954820302024018, 5733345.770982589572668 ], [ 312968.280394471017644, 5733280.590512869879603 ], [ 313038.815921684028581, 5733274.448791479691863 ], [ 313033.680309106013738, 5733185.847112080082297 ], [ 312865.446844714984763, 5733192.484768079593778 ], [ 312866.699407429026905, 5733292.011068429797888 ], [ 312895.848693850974087, 5733286.89630888029933 ], [ 312918.980899191985372, 5733352.125681820325553 ], [ 312970.954820302024018, 5733345.770982589572668 ] ] ] } }
]
}
